[{"OBJECT_NAME":"STARLINK-1993","OBJECT_ID":"2021-009AS","EPOCH":"2026-03-09T22:34:43.517280","MEAN_MOTION":15.68612589,"ECCENTRICITY":0.00017457,"INCLINATION":53.0469,"RA_OF_ASC_NODE":338.0743,"ARG_OF_PERICENTER":302.7069,"MEAN_ANOMALY":57.3778,"EPHEMERIS_TYPE":0,"CLASSIFICATION_TYPE":"U","NORAD_CAT_ID":47588,"ELEMENT_SET_NO":999,"REV_AT_EPOCH":28143,"BSTAR":0.0010228331,"MEAN_MOTION_DOT":0.00119587,"MEAN_MOTION_DDOT":0},{"OBJECT_NAME":"ANIK C2 R\/B [PAM-D]","OBJECT_ID":"1983-059D","EPOCH":"2026-03-09T11:02:49.300512","MEAN_MOTION":2.71275902,"ECCENTRICITY":0.69094725,"INCLINATION":22.957,"RA_OF_ASC_NODE":177.387,"ARG_OF_PERICENTER":324.7124,"MEAN_ANOMALY":4.9521,"EPHEMERIS_TYPE":0,"CLASSIFICATION_TYPE":"U","NORAD_CAT_ID":14135,"ELEMENT_SET_NO":999,"REV_AT_EPOCH":31877,"BSTAR":0.001147192,"MEAN_MOTION_DOT":1.286e-5,"MEAN_MOTION_DDOT":0}]
